{"type": "FeatureCollection", "features": [ {"type": "Feature", "properties": {"norad_id": 30146, "name": "FENGYUN 1C DEB", "group": "fengyun-1c-debris", "lat": 51.2615477130252, "lon": -22.294648177667234, "alt_km": 806.4784254206961, "timestamp": "2025-12-14T03:55:53.061683+00:00", "meta": {"OBJECT_NAME": "FENGYUN 1C DEB", "OBJECT_ID": "1999-025TB", "EPOCH": "2025-12-12T22:36:31.461120", "MEAN_MOTION": 13.86600447, "ECCENTRICITY": 0.01787898, "INCLINATION": 98.0199, "RA_OF_ASC_NODE": 146.5355, "ARG_OF_PERICENTER": 122.3183, "MEAN_ANOMALY": 29.8906, "EPHEMERIS_TYPE": 0, "CLASSIFICATION_TYPE": "U", "NORAD_CAT_ID": 30146, "ELEMENT_SET_NO": 999, "REV_AT_EPOCH": 95420, "BSTAR": 0.00091847164, "MEAN_MOTION_DOT": 1.178e-05, "MEAN_MOTION_DDOT": 0}, "tle": {"line1": "1 30146U 99025TB  25346.94203080  .00001178  00000+0  91847-3 0  9993", "line2": "2 30146  98.0199 146.5355 0178789 122.3183  29.8906 13.86600447954204"}}, "geometry": {"type": "Point", "coordinates": [-22.294648177667234, 51.2615477130252]}}, {"type": "Feature", "properties": {"norad_id": 30148, "name": "FENGYUN 1C DEB", "group": "fengyun-1c-debris", "lat": 17.67678773567269, "lon": -39.424794431475, "alt_km": 849.1916742244994, "timestamp": "2025-12-14T03:55:53.061693+00:00", "meta": {"OBJECT_NAME": "FENGYUN 1C DEB", "OBJECT_ID": "1999-025TD", "EPOCH": "2025-12-12T22:22:19.856928", "MEAN_MOTION": 13.88489149, "ECCENTRICITY": 0.01349705, "INCLINATION": 99.5444, "RA_OF_ASC_NODE": 136.2417, "ARG_OF_PERICENTER": 196.1675, "MEAN_ANOMALY": 293.4517, "EPHEMERIS_TYPE": 0, "CLASSIFICATION_TYPE": "U", "NORAD_CAT_ID": 30148, "ELEMENT_SET_NO": 999, "REV_AT_EPOCH": 95519, "BSTAR": 0.0014239172, "MEAN_MOTION_DOT": 1.792e-05, "MEAN_MOTION_DDOT": 0}, "tle": {"line1": "1 30148U 99025TD  25346.93217427  .00001792  00000+0  14239-2 0  9995", "line2": "2 30148  99.5444 136.2417 0134970 196.1675 293.4517 13.88489149955191"}}, "geometry": {"type": "Point", "coordinates": [-39.424794431475, 17.67678773567269]}}, {"type": "Feature", "properties": {"norad_id": 30150, "name": "FENGYUN 1C DEB", "group": "fengyun-1c-debris", "lat": -69.3249155300414, "lon": 148.91559784184597, "alt_km": 869.3634223798699, "timestamp": "2025-12-14T03:55:53.061704+00:00", "meta": {"OBJECT_NAME": "FENGYUN 1C DEB", "OBJECT_ID": "1999-025TF", "EPOCH": "2025-12-13T03:09:35.342784", "MEAN_MOTION": 13.86594439, "ECCENTRICITY": 0.01465033, "INCLINATION": 98.9942, "RA_OF_ASC_NODE": 123.1083, "ARG_OF_PERICENTER": 335.0781, "MEAN_ANOMALY": 205.3661, "EPHEMERIS_TYPE": 0, "CLASSIFICATION_TYPE": "U", "NORAD_CAT_ID": 30150, "ELEMENT_SET_NO": 999, "REV_AT_EPOCH": 95463, "BSTAR": 0.00068681198, "MEAN_MOTION_DOT": 8.25e-06, "MEAN_MOTION_DDOT": 0}, "tle": {"line1": "1 30150U 99025TF  25347.13165906  .00000825  00000+0  68681-3 0  9992", "line2": "2 30150  98.9942 123.1083 0146503 335.0781 205.3661 13.86594439954638"}}, "geometry": {"type": "Point", "coordinates": [148.91559784184597, -69.3249155300414]}}, {"type": "Feature", "properties": {"norad_id": 30151, "name": "FENGYUN 1C DEB", "group": "fengyun-1c-debris", "lat": 77.57157388783982, "lon": -50.316420439058284, "alt_km": 1056.9100567102487, "timestamp": "2025-12-14T03:55:53.061714+00:00", "meta": {"OBJECT_NAME": "FENGYUN 1C DEB", "OBJECT_ID": "1999-025TG", "EPOCH": "2025-12-13T06:49:14.853216", "MEAN_MOTION": 13.8447424, "ECCENTRICITY": 0.01631801, "INCLINATION": 99.0633, "RA_OF_ASC_NODE": 355.2416, "ARG_OF_PERICENTER": 277.3152, "MEAN_ANOMALY": 102.0211, "EPHEMERIS_TYPE": 0, "CLASSIFICATION_TYPE": "U", "NORAD_CAT_ID": 30151, "ELEMENT_SET_NO": 999, "REV_AT_EPOCH": 95253, "BSTAR": 0.00088587763, "MEAN_MOTION_DOT": 1.057e-05, "MEAN_MOTION_DDOT": 0}, "tle": {"line1": "1 30151U 99025TG  25347.28419969  .00001057  00000+0  88588-3 0  9996", "line2": "2 30151  99.0633 355.2416 0163180 277.3152 102.0211 13.84474240952532"}}, "geometry": {"type": "Point", "coordinates": [-50.316420439058284, 77.57157388783982]}}, {"type": "Feature", "properties": {"norad_id": 30152, "name": "FENGYUN 1C DEB", "group": "fengyun-1c-debris", "lat": -80.0539195295207, "lon": -39.8861932399449, "alt_km": 1030.0148655565345, "timestamp": "2025-12-14T03:55:53.061725+00:00", "meta": {"OBJECT_NAME": "FENGYUN 1C DEB", "OBJECT_ID": "1999-025TH", "EPOCH": "2025-12-12T02:31:48.295776", "MEAN_MOTION": 13.96678619, "ECCENTRICITY": 0.01617762, "INCLINATION": 99.0805, "RA_OF_ASC_NODE": 203.8642, "ARG_OF_PERICENTER": 87.1083, "MEAN_ANOMALY": 274.8581, "EPHEMERIS_TYPE": 0, "CLASSIFICATION_TYPE": "U", "NORAD_CAT_ID": 30152, "ELEMENT_SET_NO": 999, "REV_AT_EPOCH": 95369, "BSTAR": 0.0036265383, "MEAN_MOTION_DOT": 5.576e-05, "MEAN_MOTION_DDOT": 0}, "tle": {"line1": "1 30152U 99025TH  25346.10542009  .00005576  00000+0  36265-2 0  9993", "line2": "2 30152  99.0805 203.8642 0161776  87.1083 274.8581 13.96678619953697"}}, "geometry": {"type": "Point", "coordinates": [-39.8861932399449, -80.0539195295207]}}, {"type": "Feature", "properties": {"norad_id": 30153, "name": "FENGYUN 1C DEB", "group": "fengyun-1c-debris", "lat": 8.962948908835864, "lon": 160.3650182403092, "alt_km": 1114.338966144127, "timestamp": "2025-12-14T03:55:53.061735+00:00", "meta": {"OBJECT_NAME": "FENGYUN 1C DEB", "OBJECT_ID": "1999-025TJ", "EPOCH": "2025-12-12T21:47:45.220128", "MEAN_MOTION": 13.78771035, "ECCENTRICITY": 0.0200734, "INCLINATION": 100.4668, "RA_OF_ASC_NODE": 337.3092, "ARG_OF_PERICENTER": 5.1903, "MEAN_ANOMALY": 55.8083, "EPHEMERIS_TYPE": 0, "CLASSIFICATION_TYPE": "U", "NORAD_CAT_ID": 30153, "ELEMENT_SET_NO": 999, "REV_AT_EPOCH": 94777, "BSTAR": 0.0018599511, "MEAN_MOTION_DOT": 2.146e-05, "MEAN_MOTION_DDOT": 0}, "tle": {"line1": "1 30153U 99025TJ  25346.90816227  .00002146  00000+0  18600-2 0  9991", "line2": "2 30153 100.4668 337.3092 0200734   5.1903  55.8083 13.78771035947775"}}, "geometry": {"type": "Point", "coordinates": [160.3650182403092, 8.962948908835864]}}, {"type": "Feature", "properties": {"norad_id": 30154, "name": "FENGYUN 1C DEB", "group": "fengyun-1c-debris", "lat": 80.3733933346581, "lon": -88.96944691909516, "alt_km": 956.6897087401221, "timestamp": "2025-12-14T03:55:53.061746+00:00", "meta": {"OBJECT_NAME": "FENGYUN 1C DEB", "OBJECT_ID": "1999-025TK", "EPOCH": "2025-12-13T01:37:21.670752", "MEAN_MOTION": 13.85990784, "ECCENTRICITY": 0.01829609, "INCLINATION": 98.4505, "RA_OF_ASC_NODE": 28.8232, "ARG_OF_PERICENTER": 197.8494, "MEAN_ANOMALY": 192.2775, "EPHEMERIS_TYPE": 0, "CLASSIFICATION_TYPE": "U", "NORAD_CAT_ID": 30154, "ELEMENT_SET_NO": 999, "REV_AT_EPOCH": 94989, "BSTAR": 0.0022534734, "MEAN_MOTION_DOT": 2.918e-05, "MEAN_MOTION_DDOT": 0}, "tle": {"line1": "1 30154U 99025TK  25347.06761193  .00002918  00000+0  22535-2 0  9990", "line2": "2 30154  98.4505  28.8232 0182960 197.8494 192.2775 13.85990784949895"}}, "geometry": {"type": "Point", "coordinates": [-88.96944691909516, 80.3733933346581]}}, {"type": "Feature", "properties": {"norad_id": 30155, "name": "FENGYUN 1C DEB", "group": "fengyun-1c-debris", "lat": -68.29147825089882, "lon": -143.87317593117842, "alt_km": 987.7352481425396, "timestamp": "2025-12-14T03:55:53.061757+00:00", "meta": {"OBJECT_NAME": "FENGYUN 1C DEB", "OBJECT_ID": "1999-025TL", "EPOCH": "2025-12-13T03:58:33.497472", "MEAN_MOTION": 13.73803407, "ECCENTRICITY": 0.02418577, "INCLINATION": 99.7515, "RA_OF_ASC_NODE": 60.6991, "ARG_OF_PERICENTER": 342.7008, "MEAN_ANOMALY": 16.6003, "EPHEMERIS_TYPE": 0, "CLASSIFICATION_TYPE": "U", "NORAD_CAT_ID": 30155, "ELEMENT_SET_NO": 999, "REV_AT_EPOCH": 93870, "BSTAR": 0.0024627829, "MEAN_MOTION_DOT": 2.799e-05, "MEAN_MOTION_DDOT": 0}, "tle": {"line1": "1 30155U 99025TL  25347.16566548  .00002799  00000+0  24628-2 0  9991", "line2": "2 30155  99.7515  60.6991 0241857 342.7008  16.6003 13.73803407938703"}}, "geometry": {"type": "Point", "coordinates": [-143.87317593117842, -68.29147825089882]}}, {"type": "Feature", "properties": {"norad_id": 30156, "name": "FENGYUN 1C DEB", "group": "fengyun-1c-debris", "lat": -0.7535718248763814, "lon": 134.9659614245405, "alt_km": 931.8079246865691, "timestamp": "2025-12-14T03:55:53.061767+00:00", "meta": {"OBJECT_NAME": "FENGYUN 1C DEB", "OBJECT_ID": "1999-025TM", "EPOCH": "2025-12-12T21:45:05.908896", "MEAN_MOTION": 13.80814171, "ECCENTRICITY": 0.01993311, "INCLINATION": 98.9186, "RA_OF_ASC_NODE": 313.8965, "ARG_OF_PERICENTER": 262.4542, "MEAN_ANOMALY": 152.886, "EPHEMERIS_TYPE": 0, "CLASSIFICATION_TYPE": "U", "NORAD_CAT_ID": 30156, "ELEMENT_SET_NO": 999, "REV_AT_EPOCH": 94693, "BSTAR": 0.0022008619, "MEAN_MOTION_DOT": 2.651e-05, "MEAN_MOTION_DDOT": 0}, "tle": {"line1": "1 30156U 99025TM  25346.90631839  .00002651  00000+0  22009-2 0  9997", "line2": "2 30156  98.9186 313.8965 0199331 262.4542 152.8860 13.80814171946939"}}, "geometry": {"type": "Point", "coordinates": [134.9659614245405, -0.7535718248763814]}}, {"type": "Feature", "properties": {"norad_id": 30157, "name": "FENGYUN 1C DEB", "group": "fengyun-1c-debris", "lat": 67.29897761637454, "lon": 63.72541151902734, "alt_km": 748.075285968931, "timestamp": "2025-12-14T03:55:53.061777+00:00", "meta": {"OBJECT_NAME": "FENGYUN 1C DEB", "OBJECT_ID": "1999-025TN", "EPOCH": "2025-12-13T06:08:00.892032", "MEAN_MOTION": 14.45116348, "ECCENTRICITY": 0.00370865, "INCLINATION": 98.7142, "RA_OF_ASC_NODE": 84.3022, "ARG_OF_PERICENTER": 191.6221, "MEAN_ANOMALY": 195.3703, "EPHEMERIS_TYPE": 0, "CLASSIFICATION_TYPE": "U", "NORAD_CAT_ID": 30157, "ELEMENT_SET_NO": 999, "REV_AT_EPOCH": 98080, "BSTAR": 0.0037578088, "MEAN_MOTION_DOT": 0.00013232, "MEAN_MOTION_DDOT": 0}, "tle": {"line1": "1 30157U 99025TN  25347.25556588  .00013232  00000+0  37578-2 0  9998", "line2": "2 30157  98.7142  84.3022 0037086 191.6221 195.3703 14.45116348980804"}}, "geometry": {"type": "Point", "coordinates": [63.72541151902734, 67.29897761637454]}}]}